STARLINK-31127          
1 58765U 24011A   26068.06164726  .00001014  00000+0  46353-4 0  9993
2 58765  53.1633  16.6302 0001212  93.1699 266.9440 15.30195738120179
NUSAT-49 (KLARA DAN VO*)
1 60500U 24149AJ  26068.79810190  .00012912  00000+0  43568-3 0  9991
2 60500  97.3807 150.7380 0001132 286.7761  73.3356 15.30828857 86935
