[{"OBJECT_NAME":"STARLINK-31127","OBJECT_ID":"2024-011A","EPOCH":"2026-03-09T01:28:46.323264","MEAN_MOTION":15.30195738,"ECCENTRICITY":0.00012128,"INCLINATION":53.1633,"RA_OF_ASC_NODE":16.6302,"ARG_OF_PERICENTER":93.1699,"MEAN_ANOMALY":266.944,"EPHEMERIS_TYPE":0,"CLASSIFICATION_TYPE":"U","NORAD_CAT_ID":58765,"ELEMENT_SET_NO":999,"REV_AT_EPOCH":12017,"BSTAR":4.6352502e-5,"MEAN_MOTION_DOT":1.014e-5,"MEAN_MOTION_DDOT":0},{"OBJECT_NAME":"NUSAT-49 (KLARA DAN VON NEUMANN)","OBJECT_ID":"2024-149AJ","EPOCH":"2026-03-09T19:09:16.004160","MEAN_MOTION":15.30828857,"ECCENTRICITY":0.00011321,"INCLINATION":97.3807,"RA_OF_ASC_NODE":150.738,"ARG_OF_PERICENTER":286.7761,"MEAN_ANOMALY":73.3356,"EPHEMERIS_TYPE":0,"CLASSIFICATION_TYPE":"U","NORAD_CAT_ID":60500,"ELEMENT_SET_NO":999,"REV_AT_EPOCH":8693,"BSTAR":0.00043568345,"MEAN_MOTION_DOT":0.00012912,"MEAN_MOTION_DDOT":0}]
